SAUDISAT 1C (SO-50)     
1 27607U 02058C   26166.26718992  .00000865  00000+0  11946-3 0  9994
2 27607  64.5509 134.9258 0075306 262.8261  96.4279 14.83043102264176
SAUDISAT 2              
1 28371U 04025F   26166.24303912  .00000214  00000+0  58868-4 0  9992
2 28371  98.5508 166.1747 0023663 304.5098  55.3865 14.56682900165464
SAUDISAT 3              
1 31118U 07012B   26166.28662380  .00000204  00000+0  41173-4 0  9995
2 31118  98.1456 116.6859 0013534 230.2982 129.7032 14.71424549 27461
PISAT                   
1 41784U 16059B   26165.96430915  .00000754  00000+0  13601-3 0  9991
2 41784  97.8179 166.5126 0028188 210.0908 149.8680 14.68980131519418
FLYING LAPTOP           
1 42831U 17042G   26166.31910302  .00003152  00000+0  24959-3 0  9994
2 42831  97.4674 321.9235 0019545 127.8462 232.4535 15.01134999486178
SALSAT                  
1 46495U 20068K   26165.98698011  .00006897  00000+0  24187-3 0  9990
2 46495  97.8843 168.9176 0008203 317.5916  42.4688 15.29772719315025
