OBJECT_NAME,OBJECT_ID,EPOCH,MEAN_MOTION,ECCENTRICITY,INCLINATION,RA_OF_ASC_NODE,ARG_OF_PERICENTER,MEAN_ANOMALY,EPHEMERIS_TYPE,CLASSIFICATION_TYPE,NORAD_CAT_ID,ELEMENT_SET_NO,REV_AT_EPOCH,BSTAR,MEAN_MOTION_DOT,MEAN_MOTION_DDOT
SAUDISAT 1C (SO-50),2002-058C,2026-06-15T06:24:45.209088,14.83043102,.00753069,64.5509,134.9258,262.8261,96.4279,0,U,27607,999,26417,.11945622E-3,.865E-5,0
SAUDISAT 2,2004-025F,2026-06-15T05:49:58.579968,14.56682900,.00236632,98.5508,166.1747,304.5098,55.3865,0,U,28371,999,16546,.58867987E-4,.214E-5,0
SAUDISAT 3,2007-012B,2026-06-15T06:52:44.296320,14.71424549,.00135345,98.1456,116.6859,230.2982,129.7032,0,U,31118,999,2746,.41172888E-4,.204E-5,0
PISAT,2016-059B,2026-06-14T23:08:36.310560,14.68980131,.00281882,97.8179,166.5126,210.0908,149.8680,0,U,41784,999,51941,.13601128E-3,.754E-5,0
FLYING LAPTOP,2017-042G,2026-06-15T07:39:30.500928,15.01134999,.00195455,97.4674,321.9235,127.8462,232.4535,0,U,42831,999,48617,.24959243E-3,.3152E-4,0
SALSAT,2020-068K,2026-06-14T23:41:15.081504,15.29772719,.0008203,97.8843,168.9176,317.5916,42.4688,0,U,46495,999,31502,.24186561E-3,.6897E-4,0
